,place_name,place_id,lat,lng,type
0,बैंक ऑफ़ बड़ौदा,ChIJ2-j0Qul_oDkRhdTp5g1vl98,28.981296,79.398741,bank
1,Bank of Baroda,ChIJQ7KN0p5-oDkRAn_eW6ocl50,28.987508,79.414121,bank
2,बँक ऑफ बडोदा,ChIJocb9Yd1_oDkRp88yFctWfVM,28.9879073,79.40293059999999,bank
3,Axis Bank ATM,ChIJjzIMy8J_oDkRYKXNQru_d9U,28.98928629999999,79.40369489999999,bank
4,Nainital Bank,ChIJH1N9osJ_oDkRAr2vxptNTgc,28.986714,79.4007022,bank
5,Syndicate Bank,ChIJH1N9osJ_oDkR26BCzTb0rn8,28.9866874,79.40091629999999,bank
6,Bank of Maharashtra,ChIJmT4QCuh_oDkR2C0rgelubs8,28.9864627,79.40175820000002,bank
7,United Bank of India,ChIJneq5Ceh_oDkRKgqFMQp_qjM,28.9864354,79.40193540000001,bank
8,HDFC Bank ATM,ChIJRXPIxPJ_oDkRLeO-i1Qb2_U,28.98615750000001,79.4004267,bank
9,Oriental Bank of Commerce,ChIJyXc8e-h_oDkRZH6EtMc8i9M,28.9857785,79.4005188,bank
10,ALLAHBAD BANK CUSTOMER SERVICE POINT,ChIJRSrdIN1_oDkR66VH7Y40DwM,28.987956,79.4055198,bank
11,ICICI Bank ATM,ChIJJzAZROx_oDkRom-dIeifCIs,28.986554,79.404527,bank
12,YES Bank ATM,ChIJNRime-h_oDkRnyNeHV-wv7o,28.9852662,79.40035879999999,bank
13,Corporation Bank,ChIJKzp0Xuh_oDkRTPVCaaAb2Ow,28.9848828,79.4003869,bank
14,State Bank Of India,ChIJH1N9osJ_oDkRjRYW3lcH7Jc,28.9852639,79.4033896,bank
15,Uttarakhand Gramin Bank,ChIJh6XuXOh_oDkR3pgKJpg-J9k,28.9847561,79.4006402,bank
16,Axis Bank ATM,ChIJ2UC1B9B_oDkRfQgxK08yrQc,28.9863341,79.4094123,bank
17,ALLAHBAD BANK I.I.E Pantnagar Branch,ChIJJXFaZel_oDkRS9WPkBS4IGY,28.9812695,79.39930009999999,bank
18,Union Bank Of India,ChIJMeAHZ-l_oDkRivKgyz4KTAo,28.981073,79.3987741,bank
19,Karnataka Bank,ChIJtUzt6Ot_oDkRQ6vWG-oXz7M,28.9797015,79.3984183,bank
20,Central Bank Of India,ChIJMULCB-x_oDkRFbBSmgni11I,28.9797502,79.3971406,bank
21,canara bank,ChIJnzz07Ot_oDkR8T1MDWIpzjA,28.9792179,79.3981833,bank
22,State Bank Of India,ChIJfaABt-t_oDkRfvoEDm3Qt2o,28.978963,79.3995107,bank
23,Nainital Bank,ChIJaZdTC-x_oDkRIdkQ6BzM4CA,28.9789668,79.39690929999999,bank
24,SBI Bank,ChIJh_16npN_oDkRy3DjSFCUL-I,28.9871691,79.4139786,bank
25,Western Union Bank,ChIJq6qqqtp_oDkRk4GvaKJkQ3U,28.9875082,79.4141214,bank
26,Bandhan Bank,ChIJOf3__89_oDkRffFVpl4qsxw,28.987508,79.414124,bank
27,IndusInd Bank ATM,ChIJ_Yl9VcV_oDkRdF41vkuAAZY,28.987358,79.4141214,bank
28,Axis Bank ATM,ChIJvxfjIsN_oDkR2bc54NQK9bU,28.9863349,79.4139708,bank
29,Axis Bank ATM,ChIJmfhOdNEpCTkRyusOOsBnmRs,28.9862692,79.4139869,bank
30,Axis Bank ATM,ChIJnZZ18M9_oDkR6I-kZEKh8u0,28.9862504,79.41398149999999,bank
31,Axis Bank ATM,ChIJAbO6X8V_oDkRgEIA8t8ZgI0,28.9869563,79.4147007,bank
32,Axis Bank ATM,ChIJw5paihrRCDkRRDapNNZ8tDI,28.98695429999999,79.4147004,bank
33,Axis Bank ATM,ChIJz9LU7ME-CTkRtOV15IMgLWI,28.98693549999999,79.4147004,bank
34,Almora Cooperative Bank,ChIJuQnNg-t_oDkREVkTaHvnzKM,28.9777627,79.39763239999999,bank
35,Axis Bank ATM,ChIJgXMgwux_oDkR15rjV9jEf8k,28.975866,79.395474,bank
36,Bank of Baroda,ChIJLxjOIZN_oDkRROKO4jEDor4,28.97482,79.39439999999999,bank
37,Punjab National Bank,ChIJMQAQLu1_oDkRwju66wHwA7M,28.9747928,79.3937607,bank
38,Axis Bank ATM,ChIJR3Vwl-B_oDkRiSotzc1qs5c,28.97343459999999,79.3980856,bank
39,HDFC Bank,ChIJGWa1xvJ_oDkRG8Z23aQdp4o,28.975156,79.38993099999999,bank
40,Zenit Excelencia ( Ielts Coaching & Visa Filing ),ChIJf_QVOe1_oDkR8G5a5hUjPKg,28.987883,79.4025613,embassy
41,Delphi tvs,ChIJpQj012yAoDkRFRy2bdEExFk,29.012625,79.40354669999999,local_government_office
42,Zenit Excelencia ( Ielts Coaching & Visa Filing ),ChIJf_QVOe1_oDkR8G5a5hUjPKg,28.987883,79.4025613,local_government_office
43,Neelam,ChIJzZDbWtp_oDkR2vP5SZltwAE,28.9859067,79.4035858,local_government_office
44,Cmo Off Rudrapur Udham Singh Nagar,ChIJ8xuHyd9_oDkRe-3ORZmikCI,28.9957137,79.4041244,local_government_office
45,Laghu sichaie khand Rudrapur u s nagar,ChIJSSCNYLp_oDkRsfcJCGbldDE,28.9861298,79.40608209999999,local_government_office
46,B.S Enterprises,ChIJz94WAcJ_oDkRqbogWagZC6E,28.9848652,79.4048298,local_government_office
47,Ideal electricals,ChIJPZnpBrp_oDkR1YkQkDCdmG8,28.993636,79.4075744,local_government_office
48,Jila Shiksha Adhikari Office Ruderpur,ChIJxbSp499_oDkRWUAxWxghhAs,28.99723190000001,79.4030726,local_government_office
49,Treasury Office,ChIJ8xDWQ3WAoDkR1zIeCwM4-8U,28.9992916,79.4040697,local_government_office
50,Samuday Bhawan,ChIJ_a42Q3V_oDkR3ztJ8oj9Ivw,28.9882033,79.3897075,local_government_office
51,jagdamba industries,ChIJ94seXbV_oDkRU9ol2kMYzw8,28.9841082,79.3892204,local_government_office
52,Two Wheeler Finance Rudrapur kichha,ChIJ96Cj6bx_oDkRsNyngVM3FR0,28.9877621,79.4144871,local_government_office
53,Globe Hospital and Pharmaceutical Research Centre Pvt. Ltd.,ChIJ1TM8R-x_oDkRIn_2jqwBMj8,28.97871689999999,79.39539979999999,local_government_office
54,Salman Hair Cutting Saloon,ChIJ24iOw3t_oDkRGK1T50EVtBc,28.9799799,79.4094365,local_government_office
55,Vishwas Eng. Works,ChIJVfgeiuh_oDkRy4Ex-uFjLD0,28.9897988,79.38396019999999,local_government_office
56,SWAN DHQ USNAHAR,ChIJI5fvPs9_oDkRS_Sv2lbtK_U,28.9830983,79.41575279999999,local_government_office
57,Passport office (post office),ChIJA-ZsmNV_oDkR37QKf2LksnE,28.9721715,79.3969833,local_government_office
58,"Passport Seva Kendra, Rudrapur",ChIJc2k8fpN_oDkRyHkCzBFW0-A,28.9720345,79.3971758,local_government_office
59,Passport office(head post office),ChIJOzajAhZ_oDkRsZvb2pEl25Y,28.9720315,79.3971771,local_government_office
60,Post Office,ChIJ2bGXS71_oDkRlPAixstk6vg,28.9716403,79.3973723,local_government_office
61,ELITE IMMIGRATION - IELTS & VISA FILING,ChIJJbsVV_N_oDkRG2dWfjR_SHQ,28.97432019999999,79.3870963,local_government_office
62,Office of excutive engineer minor irrigation U S Nagar,ChIJ3bP9-tF_oDkR0U3mXxosjmQ,28.9718435,79.39197399999999,local_government_office
63,uttrakhand gram vikas and panchayat raj vikas sansthan,ChIJ7UqclJF_oDkRgaHCUG_sa-c,28.9674944,79.3931283,local_government_office
64,city one rudrapur,ChIJVxwQdhyACjkRxSC_nU2DH-c,28.9804656,79.3747787,local_government_office
65,Police Line Rudrapur,ChIJrSU6ad5_oDkRd1Pyxfl4AUE,28.993648,79.4047349,police
66,Police Office (SSP Office),ChIJAWiiRHB_oDkRQBgrApLQb2w,28.9952751,79.4010859,police
67,RPR,ChIJb3UKzuR_oDkRoBwY-CJ1cKc,28.9957709,79.4015773,police
68,Transport rudrapur,ChIJb3NnvNOBoDkRKrg431E5FHE,28.9997752,79.3965309,police
69,31 B.N. P.A.C,ChIJVT7S0O9_oDkRMJRjgoE2Sm0,28.98345340000001,79.3919741,police
70,46BN PAC,ChIJYRcAFQJ_oDkRz5zg5GW1gjc,28.99447349999999,79.38933469999999,police
71,M.R.Tube Pvt Ltd,ChIJj81745N_oDkRSt27m-HY3hM,28.9969292,79.4125366,police
72,Police Station,ChIJMy-tCc9_oDkRawi5MztcQAU,28.9846402,79.4160539,police
73,Police chowki market,ChIJDwDCmPJ_oDkRP18zWaysxWU,28.9757329,79.3911653,police
74,Shidkul Police Station,ChIJqf5-83iAoDkR8sOELJu4U5o,29.0008704,79.4172997,police
75,Chauki Sidcul,ChIJqXw193iAoDkRWYElIh44LfM,29.0013293,79.417279,police
76,Police Station,ChIJOw375JN_oDkRYf07eDAnUUM,28.9693547,79.39639020000001,police
77,RPCS TEEN PANI,ChIJTWwAQid_oDkRpnKeWDTN9fQ,28.96156729999999,79.41609559999999,police
78,RPCS,ChIJ2XSx-xx_oDkRqQoG8sZbNuI,28.9614747,79.4160969,police
79,Passport office (post office),ChIJA-ZsmNV_oDkR37QKf2LksnE,28.9721715,79.3969833,post_office
80,Indian Post Payments Bank,ChIJ678VC0F_oDkRdNGWtlmKKgY,28.97207440000001,79.3974105,post_office
81,ICH Rudrapur,ChIJE93kgZR_oDkRv-aZuir4-4A,28.9720326,79.3972126,post_office
82,Tendersoul Public School,ChIJpcevr8J_oDkRcvcE0HcDo8U,28.98610139999999,79.40342059999999,school
83,Rainbow Public School,ChIJEeB2hfF_oDkRCKFgkrkFcPY,28.9800632,79.3894785,school
84,Blooming Dales' Modern School,ChIJC_6RhhmACjkRd8hJXDf-uZ4,28.97807199999999,79.371415,school
85,Educationist,ChIJ2Wq6MCaACjkRyDVGL1OHJhY,28.9620054,79.3766136,school
86,Jaycees Public School,ChIJb2t2abZ_oDkR3vnsl5373QM,28.9740132,79.41851849999999,school
87,Accu Yoga Health Care Center,ChIJgTDyi0t_oDkRjU2FoEApo3A,28.988042,79.4033115,school
88,Pumping power gym and Health club,ChIJmfGGQeh_oDkRBvhU1HH422U,28.9848787,79.4012355,school
89,Saraswati Shishu Mandir Inter College,ChIJIzAWkOl_oDkRskszhqV5HT4,28.9814126,79.4010861,school
90,CADD CENTRE (Authorized Training Company) Rudrapur,ChIJiTsHeel_oDkRry8sHEpgMXA,28.9813774,79.3991848,school
91,"Krishna Inter College , Rudrapur",ChIJ77HLtvp_oDkRvu8TfiypGI4,28.9867794,79.3911526,school
92,Gurukul Junior High School,ChIJn68qGcV_oDkRJPoyHbv1wcE,28.9856931,79.4116614,school
93,K.B.S. PUBLIC SCHOOL,ChIJuSFSbPp_oDkRhXwKTeprFaw,28.986286,79.3875718,school
94,Fly2victory - IELTS | PTE Prep and migration solutions,ChIJh_RoD_V_oDkRvjJZHTkcDJQ,28.9799727,79.39235959999999,school
95,JANAM BHUMI PUBLIC SCHOOL,ChIJZ_3tgMZ_oDkRwI87Pz-Et_Y,28.9812965,79.41119739999999,school
96,Bristlecone pre school,ChIJ0UVs5e1_oDkRUCo3pOuoo4o,28.9793905,79.39242639999999,school
97,Nirdesh,ChIJIQ-R90V_oDkRs6NQQKdr9eI,28.9827013,79.41313459999999,school
98,SND CREW THE BIGGEST DANCE STUDIO,ChIJ3SvdqkF_oDkR-mnvBlg0mrg,28.97616669999999,79.3955282,school
99,Mohit films rudrapur,ChIJ-XfKgNJ_oDkR33g1Dp44IWg,28.9773335,79.389556,school
100,Dr.D.N Memorial Public School,ChIJbzS7CMl_oDkR6Q7UmRUJ_HE,28.97939179999999,79.4176923,school
101,Jawahar Navodaya Vidhyalaya-Udham Singh Nagar,ChIJm7vFdI1_oDkRt6FAL3CRULA,28.9717283,79.3899429,school
102,Balaji kirana store,ChIJQ_pLq2t_oDkR_NdB1B-YRFE,28.9669267,79.40808500000001,school
103,Balaji kirana store,ChIJSaV64QR_oDkRxZIU14bDw1Q,28.9669083,79.4080767,school
104,Ashoka Naturopathic And Yoga clinic,ChIJkynkvkp_oDkReeTYnZAjXpg,28.9612298,79.4057773,school
105,Naveen Shiksha Niketan,ChIJ015uh6N_oDkRTdyeuhdO81o,28.9606842,79.4084337,school
106,Vidya Academy,ChIJyV3NTyR_oDkRUOWLW02gAYk,28.988029,79.43657,school
107,Icon Nurturing Innocence Preschool Rudrapur,ChIJHUZOY01_oDkRwq8iBrqCt5g,28.9653742,79.4255244,school
108,Sanatan Dharm Kanya Inter College,ChIJnXEZ-Ox_oDkRxKZCCnM1vzo,28.9772758,79.3950356,school
109,Kids Planet School,ChIJyXUVM4t_oDkRlzWOd1Xt72I,28.9735334,79.38412760000001,school
110,Blooming Dales Public School,ChIJX75J2BmACjkRap0kq4w-m6E,28.9780993,79.37145869999999,school
111,Tubewell contractor rudrapur uttrakand,ChIJI1wqH8x_oDkRt3EEoshMa-c,28.9795287,79.39468819999999,school
112,Vidya Academy,ChIJyV3NTyR_oDkRUOWLW02gAYk,28.988029,79.43657,secondary_school
113,Nav Durga Logistics (P).Ltd.,ChIJ9UkQrsJ_oDkRCedfcHBmzqY,28.986191,79.4034576,university
114,GEMS CONSULTANCY SERVICES,ChIJsQkjCiB_oDkRDOeUJBESzh8,28.9822571,79.39424350000002,university
115,Prajapita Brahma Kumaries Godly University,ChIJNf-YyHN_oDkRykWcLVCnHVc,28.9814021,79.3923112,university
116,Bansal Travels,ChIJAVuC14V_oDkRp5sK9gvVxp8,28.9600881,79.3861435,university
117,Rudrapur City,ChIJX86bmyCACjkRYwTBd_cQXZs,28.96989230000001,79.3800141,train_station
118,"Rudrapur Near Bus Stand, Rudrapur",ChIJS5E6qet_oDkRu0mhce1iBEY,28.9780363,79.39957249999999,transit_station
119,Rudrapur City,ChIJX86bmyCACjkRYwTBd_cQXZs,28.96989230000001,79.3800141,transit_station
120,Karuna Prarthna Bhawan (Church) करुणा प्रार्थना भवन रुद्रपुर,ChIJk5VnjZt_oDkRGG5uRVjMkXI,28.9815323,79.3894279,church
121,Shiv Mandir Khera,ChIJNanq1J1_oDkR7qybVfjl5WU,28.97383,79.406212,hindu_temple
122,BANSHAKTI DEVI MANDIR,ChIJVeAY2y1-oDkR6t6nZnS81Nc,28.9907456,79.43039999999999,hindu_temple
123,Oasis city,ChIJ6ygU7Lx_oDkRWhfuIH0NBjo,28.9772777,79.42669250000002,hindu_temple
124,Oasis city tempal,ChIJQZDv0MB_oDkResuiBc6emwI,28.9751213,79.4274133,hindu_temple
125,Shiv Shakti mandir,ChIJSVSFx8J_oDkRuJxeWmXSsOM,28.9859254,79.4043591,hindu_temple
126,Agarwal Dharamshala & Temple,ChIJXYLqW-x_oDkRhZfLYyfJ5H4,28.977843,79.39538739999999,hindu_temple
127,Guru Kripa Dham Mandir Shri Gopinath Ji,ChIJmbQHmot_oDkRW8PplnJlNHk,28.970139,79.38496339999999,hindu_temple
128,Kadri Masjid,ChIJZ1UIhL5_oDkRxTfVyeIZkko,28.969983,79.4060848,mosque
129,Jama Masjid,ChIJz7TsopN_oDkRe0YWxBTeHII,28.9710808,79.3956953,mosque
130,MSC,ChIJ90fBXOh_oDkRogMIJ4QB_hM,28.984752,79.400684,accounting
131,"Harnam Singh & Co., CA",ChIJJw-_bOx_oDkRR4LpwK6bL3k,28.9839634,79.4020123,accounting
132,KASG & Co.,ChIJ7wNv7Ot_oDkRNQjkJ9fEu18,28.9883047,79.4015603,accounting
133,Nummus Consultants LLP,ChIJ__8vtud_oDkRJh_OiKNGQNc,28.987914,79.40053309999999,accounting
134,PAN & Associates i,ChIJSzluAqb8DDkRS8qvzop1NsM,28.98595259999999,79.4035675,accounting
135,ARORA GUPTA AND COMPANY,ChIJ_e0ZBCt_oDkRSxHL96Qs7q0,28.9859067,79.4035858,accounting
136,"Garg & Goel, Chartered Accountants, Rudrapur",ChIJ_agl1Ol_oDkRX55MKmX5JLE,28.9833947,79.4026351,accounting
137,"S H R P & Associates , Rudrapur",ChIJUZq0OeB_oDkR0ULRinh4FZA,28.983113,79.4005399,accounting
138,Ca. Deepak Singh Deol,ChIJlcw_4Ol_oDkR6UL5u7NNqTM,28.9822014,79.4027866,accounting
139,"Singh Chawla and Associates, Chartered Accountants",ChIJpQFk9El_oDkRCGT8fXfuOBw,28.9818223,79.3990926,accounting
140,SGAD COMPLEX (K. P. RAY. ADVOCATE),ChIJifs5JKd_oDkRBEnN8AF8o94,28.98162229999999,79.3992196,accounting
141,Jayprakash Agrawal & Co.,ChIJ9x6uIzF_oDkRWcu3_Fo2dA4,28.98108180000001,79.40093569999999,accounting
142,Pramod Banwari Lal Agrawal & Co.,ChIJjYE6gul_oDkRg6If8C0DnW8,28.9810585,79.4002349,accounting
143,Alankit,ChIJ_VZHL0h_oDkRkGs9yE-fP3w,28.9822571,79.39424350000002,accounting
144,ALOK CHAWLA & CO.,ChIJz_B5gV5_oDkR5Xt-D19DIxU,28.9822571,79.39424350000002,accounting
145,Vishal RDR,ChIJ20vQCKB_oDkRx4Evz00xB0M,28.9873804,79.3898457,accounting
146,"VRAJ & Associates, Chartered Accountants",ChIJ5ZgnpQh_oDkRunapJ36ncHc,28.98022,79.3984456,accounting
147,JKIPS J.K.Institute for Professional Studies,ChIJh2aUDOB_oDkRbIyRj-Ckqfk,28.978974,79.3969017,accounting
148,Ashok Darshan & Co Chartered Accountants,ChIJkXRvHGh_oDkR9cEbEgLeY7o,28.9789484,79.3969101,accounting
149,Easy Tax Management,ChIJa2UXacV_oDkRjuL6SlyhhFc,28.9857414,79.4131956,accounting
150,LADDHA DEEPAK & CO.,ChIJMVVVVcV_oDkR-c_mZjmdGSs,28.987508,79.414121,accounting
151,taxation business,ChIJYfN1LBV_oDkRD1sDVqQVIfQ,28.9875082,79.4141214,accounting
152,K.P. RAY ADVOCATE,ChIJSwjLZvZ_oDkRLe_Kyjcl-10,28.9875082,79.4141214,accounting
153,Commpay line,ChIJa7OEFSl_oDkRRq36wxZnTaU,28.9875082,79.4141214,accounting
154,TAX SOLUTION,ChIJKx74QOx_oDkRSoMXtUaqiNg,28.97871749999999,79.39564659999999,accounting
155,VINIT KUMAR & ASSOCIATES,ChIJe0rGxGV_oDkR-1nSrR3Ib8Y,28.9795929,79.3927009,accounting
156,CA Sachin Agarwal,ChIJWzbf8ex_oDkRznR8BxwycEs,28.9766791,79.39536729999999,accounting
157,Chawla Anuj & Associates,ChIJHyjPa1t_oDkR70f5cZfs6vY,28.9767431,79.3942747,accounting
158,Tapas Sharma & Associates (Chartered Accountants),ChIJcdsJK-V_oDkRcYshvmmgfDc,28.977306,79.39268679999999,accounting
159,SHRI HARI ASSOCIATES,ChIJx8PxxwJ_oDkRPbylvczD2LU,28.9762808,79.3944295,accounting
160,Batra R. & Associates,ChIJBZAq-uF_oDkReYXTzUMn31g,28.9747902,79.39528849999999,accounting
161,TAXarena,ChIJHRxGo-l_oDkRwXyybyoICaw,28.9751754,79.39364979999999,accounting
162,Rao and Emmar,ChIJJTt4xER_oDkR_tFl8oDlfdw,28.9747869,79.39440929999999,accounting
163,CA KUSHAL AGRAWAL (CHARTERED ACCOUNTANTS),ChIJLcgu05J_oDkRMKCQ9SWooFU,28.9741997,79.393801,accounting
164,Ledger Veteran,ChIJq6qqqhqAoDkREogLuX32uDA,29.0087308,79.391605,accounting
165,SPARSH & Co.,ChIJr_FD_fR_oDkRTNowMX77A44,28.975541,79.38303359999999,accounting
166,Waha Guru Behti Centre,ChIJhxGf-YZ_oDkRXMBuuulznL0,28.9589299,79.3837021,accounting
167,Sahni bakery,ChIJa518XOh_oDkRQZLcN1WKj0I,28.984781,79.4003261,bakery
168,Mehta Bakers & Fast Food,ChIJNw_zsfp_oDkREWvLgib8esw,28.9864656,79.3912086,bakery
169,Best Online Cake Delivery Rudrapur,ChIJMex2-R1_oDkR-Zfc1FjF5sE,28.98145109999999,79.39218,bakery
170,Khalsa Bakery And Fast Food,ChIJURhjSPB_oDkRJxGbBfBuw4Y,28.9833419,79.3894577,bakery
171,Celebrations Bakery,ChIJY_YRiet_oDkRx4H0BhXdU8M,28.978523,79.39707299999999,bakery
172,Praveen bakery,ChIJeWQzbIh_oDkRUOvLASRswYc,28.9768821,79.3930795,bakery
173,Tarai Biscuits-Top Bakeries Fresh Biscuits Cookies Cakes & Pastries Bakery Delivery Shops Services,ChIJJaA4pOx_oDkRbZklM2hdgpY,28.9755897,79.3967953,bakery
174,Grover Confectionery / Golden Gift Palace,ChIJkRf8pOx_oDkRTaryyzZ4t7o,28.9754694,79.3967424,bakery
175,Manglam Sweets & Fast Food,ChIJ2Q34mfF_oDkRFpemLIRF6bg,28.975519,79.3963718,bakery
176,Satguru cake point,ChIJZSYi9b9_oDkRjNtbkPUSNdY,28.9847131,79.4174886,bakery
177,SWEET KITCHEN,ChIJVxwQdhyACjkRhfN6odlyQpk,28.9836492,79.384303,bakery
178,khurana bangels stor,ChIJhStaz7R_oDkRbE_Ha3O8et8,28.9746894,79.3967838,bakery
179,Master Bakers,ChIJrS56LIZ_oDkRuFzyIHieSiU,28.977034,79.3903997,bakery
180,ANEJA BAKERS MAGIC,ChIJVfsiPWx_oDkR9bK5dYVhmr4,28.9747869,79.39440929999999,bakery
181,S.K PAL BAKERY,ChIJy-IRoPJ_oDkR5Y5ok5NUh_U,28.9755871,79.39156059999999,bakery
182,AADI CAKE POINT,ChIJi34ZPVZ_oDkRYqrlJpymZNs,28.9863949,79.4219923,bakery
183,Lancer,ChIJq6qqqhqAoDkRPf_ewl7_qig,29.0087308,79.391605,bakery
184,Rampura Rudrapur U.s.nagar,ChIJV86c5pN_oDkRCGLqpWO3ymk,28.9667419,79.3978312,bakery
185,Vanya's Baking Classes,ChIJ2VPd83OBCjkRgdcyeYOsfD4,28.9728601,79.3822529,bakery
186,Lavish Food Corner,ChIJz-gUsbB_oDkR2GffLWV11H4,28.9799319,79.37461909999999,bakery
187,NAVJOT FOOD PRODUCTS,ChIJVYePPBN_CjkRt5z5hUBQOH8,28.970979,79.38190019999999,bakery
188,Cake And Bakery,ChIJjTtRkX1_oDkRpNG_8-v_Ycw,29.0132435,79.38584,bakery
189,Mukesh catters,ChIJcQW1DIR_oDkRzm8plGjAkTM,28.9622903,79.4143495,bakery
190,Milan Bakery,ChIJE2yIXj9_oDkRMd5NewVCqZE,28.95652319999999,79.4042712,bakery
191,shri krishna food bakers,ChIJoXF-GmR_oDkRaJpuBTJqAGg,28.9569999,79.3909702,bakery
192,Avon Cycles,ChIJq6qqqtp_oDkRzng113h7A4Y,28.9875082,79.4141214,bicycle_store
193,R. S. CYCLE TRADERS,ChIJAdZKdO1_oDkRTfq9BDfa1U4,28.9770038,79.3927595,bicycle_store
194,Burman Cycle Store,ChIJFxcdoO1_oDkR_ScpCMZEuko,28.9769114,79.39239839999999,bicycle_store
195,Books store business,ChIJNzXbkOx_oDkRtNv3UzyzDU8,28.9763002,79.3963615,book_store
196,Preet Distributor,ChIJZa7EZet_oDkRVTSc2lzfMz0,28.97655499999999,79.3978262,book_store
197,Shakes&Cones,ChIJexBT_IB_oDkRfSlRRgaDm78,28.98931099999999,79.4024245,cafe
198,The Loan Hub,ChIJa3ze9IZ_oDkRIlgPShq6Z14,28.98532890000001,79.40034930000002,cafe
199,JAN SEVA KENDRA,ChIJ-3FSw5h_oDkRaeq-zUh2muU,28.98595259999999,79.4035675,cafe
200,Apriqot Cafe 'n' Restaurant - A Rendezvous with Joy,ChIJX6Bs5wqAoDkRZ3suUrRjJd0,29.000406,79.40137399999999,cafe
201,KFK Fish Outlet,ChIJR1auwgp_oDkRBxxXwwOCCsg,29.0013916,79.3993301,cafe
202,BARISTA,ChIJw3lF0sOBoDkRDOzt3WccY9Q,29.0016885,79.3993484,cafe
203,Indus icecream parlour,ChIJQwFmBY1_oDkRR0tR75jtQ5E,28.977896,79.3911593,cafe
204,Route 87 Restaurant,ChIJbfcj_hl_oDkRJ16PD8-wlxo,28.975138,79.384621,cafe
205,JAN SEVA KENDRA PAYTM SOTRE & PAYTM KYC POINT,ChIJx8jafad_oDkR87T4lEG2upg,28.9623087,79.3927732,cafe
206,"NEXA (Akanksha Automobiles, Rudrapur, Kicha Bypass Road)",ChIJ8b8wJLB_oDkR8ZSk25i9E5M,28.964818,79.41588089999999,car_dealer
207,Renault Rudrapur,ChIJbWiOrud_oDkR0JhqdZOSYt0,28.98879870000001,79.4004734,car_dealer
208,Dishan,ChIJcxCBBNJ_oDkRJuMydBGRcco,28.9885432,79.4105661,car_dealer
209,"Maruti Suzuki True Value (Akanksha Automobiles, Rudrapur, Kichha Byepass)",ChIJi_OeWRmACjkRtmdI2CluVWI,28.977972,79.374084,car_dealer
210,Mahindra First Choice Dhanlaxmi Enterprises,ChIJ86zzfvN_oDkRAsQWpHl-BtA,28.9655094,79.4156824,car_dealer
211,Planet Honda,ChIJU7Gqq_5_oDkR_eSNwSwa8J8,28.9655875,79.41606300000001,car_dealer
212,"Maruti Suzuki ARENA (Akanksha Automobiles, Rudrapur, Kichha Bypass)",ChIJM8h31a9_oDkRkbLOPBjbwM4,28.9635958,79.4170765,car_dealer
213,SAI TRAVELS,ChIJ7-z_ful_oDkRRX5LbFhcCcA,28.980809,79.3998684,car_rental
214,Garhwal Taxi Service,ChIJT6nixXB_oDkRREy9Wz6YLPs,28.9893015,79.40589489999999,car_rental
215,MAHINDRA Kumar Autowheels Pvt. Ltd.,ChIJzSkmd7B_oDkRHGJMn8wI9Vc,28.9669995,79.41443009999999,car_repair
216,Green Fuels CNG,ChIJbbfoRTl7oDkR5KWTEuCOh_4,28.9894045,79.4011907,car_repair
217,Choice Auto Garage,ChIJq6qqqtp_oDkRgzjsqdLUYRM,28.9875082,79.4141214,car_repair
218,Anand Automobiles - Battery dealer In Rudrapur | Tyre Dealer in Rudrapur,ChIJ0w6rfZR_oDkRLEwX0BBpz4I,28.9718899,79.39698729999999,car_repair
219,Anand Automobiles-Tyre & Battery Dealer & Distributor,ChIJ4-JE011_oDkRFVWhA7hZ9GM,28.971608,79.397634,car_repair
220,Gopal Traders Bajaj,ChIJTQ9CXHF_oDkRAY4zWpE-PyU,28.9751298,79.38491979999999,car_repair
221,Khan tayres service,ChIJfSbUb7Z_oDkR4Hi9Lk8RLIk,28.96938269999999,79.3998489,car_repair
222,Advance car service rudrapur,ChIJqbH7qOl_oDkRScW-4kdDmaU,28.96809330000001,79.4023077,car_repair
223,Royal Enfield Service Center,ChIJ5XZmOumBCjkRtVpy-rkyQJM,28.96964,79.379747,car_repair
224,SHRI BALAJI MOTORS,ChIJk-0BxKR_oDkRxYY5sw7avAY,28.9635432,79.410271,car_repair
225,All Generator rentals and sale service repair,ChIJh38L101_oDkRgKBfS-j-vTU,28.9619501,79.4148313,car_repair
226,Royal Enfield Service Center,ChIJ_XWnv71_oDkRAjnO8pzFmIA,28.9600638,79.38639479999999,car_repair
227,Alf Engineering,ChIJX53KQAaBoDkR6U4RaqTCMuk,29.0162369,79.4266992,car_repair
228,Royal Enfield Service Center,ChIJaWtFZMCBoDkR0jnzXnNAI0E,29.000842,79.39578499999999,car_repair
229,Swan Multi Trading,ChIJoz57bAR_oDkRw-dyemBr1io,28.9821712,79.42608690000002,car_wash
230,Westside,ChIJyWTzowuAoDkRhOiDjfRkMlo,29.0017316,79.3993199,clothing_store
231,Louis Philippe,ChIJQZTYZh6boDkRq0InEcdKX8g,28.9875082,79.4141214,clothing_store
232,Manvika Fashion Boutique,ChIJ1bHJmcd_oDkR9l-WSkL0wQA,28.98044209999999,79.4025308,clothing_store
233,Jockey Exclusive Store,ChIJS0qVEex_oDkRacNDPYcwi6A,28.9795715,79.39773869999999,clothing_store
234,Khanna Sons,ChIJIdKGOIZ_oDkRiGT8hfntOe4,28.97883629999999,79.3984519,clothing_store
235,adidas,ChIJV-wOd-x_oDkR5yzheFlqEU4,28.9784927,79.39700739999999,clothing_store
236,Saxena ji cloth house,ChIJUabhQlJ_oDkRKHixvFkMk-M,28.9794457,79.4074447,clothing_store
237,W for woman,ChIJp3UUKjJ_oDkRvPgdy5qmGr4,28.9781196,79.39706,clothing_store
238,Lovely Readymade Sales Corporation,ChIJtdc0jlh_oDkR9b_5JTb_mUk,28.9793974,79.3930419,clothing_store
239,FRONTIER,ChIJY3Qx4x5_oDkRyKvqNxQVn7c,28.9775321,79.39702869999999,clothing_store
240,Fashion Apparels,ChIJG_v_fOt_oDkRzDYOw3BzJ1s,28.9770698,79.3973807,clothing_store
241,Apsara Sarees,ChIJl6g3XuF_oDkRNVHAqAz2rys,28.9761285,79.3971014,clothing_store
242,Khurana Hosiery,ChIJhWZ3sKJ_oDkRNhejqMl1m1Y,28.9758936,79.398562,clothing_store
243,Satnam Handloom,ChIJM9NWvqV_oDkRla2-K8tzQ5I,28.98112669999999,79.3872124,clothing_store
244,Sk shangar shop,ChIJ1Y1AVYR_oDkRufihycFLtGI,28.9752078,79.3935541,clothing_store
245,Kaka Fashion mart,ChIJq-5KkmV_oDkR6salm9Bj_zQ,28.9782977,79.4135938,clothing_store
246,Kaka Fashion mart,ChIJoT6o0qR_oDkRPJ0XMhK3nWc,28.9782977,79.4135938,clothing_store
247,Kaka Fashion mart,ChIJT-JsH8V_oDkRM-Dd8AbrP4I,28.9782977,79.4135938,clothing_store
248,Sai traders,ChIJ-4xuo_1_oDkRmdK5k_IPmfA,28.98519869999999,79.4238122,clothing_store
249,Rudrapur Kheda KGN Gift Centre,ChIJ3aOBrlR_oDkRV-64loGIxbs,28.9697709,79.4053153,clothing_store
250,Krishna Readymade & Garments,ChIJiYWHGgB_oDkR8waa0sEL6YI,28.9689816,79.4075033,clothing_store
251,R Mart (Gangapur Road Near Dakchh choraha Rudrapur),ChIJC-hDcQh_oDkRtZjTQHMxCvs,28.9749333,79.4279136,clothing_store
252,Negi collection,ChIJQUDp8gh_oDkRYqb1biOQCX8,28.9894027,79.4025922,clothing_store
253,SARKAR KIRANA STORE,ChIJgf5l3sN_oDkRTI2oXI_3W8g,28.9814801,79.4069524,convenience_store
254,Manjeet Electronics Pvt. Ltd.,ChIJU0DE5-t_oDkRZqe5SpGz9Lg,28.9798455,79.3984814,electronics_store
255,Devraj Computer,ChIJ06FiAOl_oDkRpqSkdwC3DEs,28.9882412,79.39555399999999,electronics_store
256,HP World,ChIJ06FiAOl_oDkRIqUXEta6iEY,28.986127,79.400374,electronics_store
257,Dell Exclusive Store,ChIJUe0Qq9p_oDkRTyoT5aDAqVA,28.9815157,79.39901239999999,electronics_store
258,Reliance Digital,ChIJofjGpAuAoDkR9gi3wNUxJCY,29.00135539999999,79.3994979,electronics_store
259,Computer Future,ChIJQ76ZtNp_oDkRRtXNdp4yjRU,28.9875279,79.4130287,electronics_store
260,[Apple Authorized Reseller] iCrest | Rudrapur,ChIJqVwapAuAoDkRHs7TeWOKQs8,29.0017715,79.399671,electronics_store
261,Intex Smart World,ChIJ0e_HY-x_oDkRtKz14e4xFno,28.977638,79.396355,electronics_store
262,K K ELECTRONICS,ChIJwxwFi-x_oDkRF1lhLrbMax4,28.9771552,79.3959816,electronics_store
263,AMPLE INDUSTRIAL SOLUTIONS,ChIJuwwzeQ6ACjkR6JlsbbkpHJs,28.9860064,79.3637124,electronics_store
264,Gaurav DTH Service,ChIJnbPSL5p_oDkRvUm9KQbVnBU,28.98863070000001,79.4055209,electronics_store
265,BAJAJ ELECTRICALS,ChIJrTdGSDR_oDkRGcgLPyWKz1E,28.9875267,79.4053015,electronics_store
266,OM ENTERPRISES (MARG ERP SOFTWARE),ChIJXwNAauB_oDkRKjZbI4222XU,28.9842935,79.405863,electronics_store
267,Lenovo Exclusive Store - Arihant Computers,ChIJ2X44MGB_oDkRoB3EopWqfl0,28.9816356,79.39904779999999,electronics_store
268,FLORINA TELECOM,ChIJW5uxunt_oDkRi4cX8t8Z8uY,28.9813694,79.40634039999999,electronics_store
269,Dev electronics & Telecom,ChIJXXlwudp_oDkRA_Eo-tSZhUs,28.9883677,79.413023,electronics_store
270,LAPCOM SOLUTION,ChIJ7ZgJrep_oDkR0PvyKN2Z4VI,28.97975360000001,79.3970434,electronics_store
271,Shubh Enterprises,ChIJw_A_QfB_oDkRhncK276AWHQ,28.9833991,79.3890413,electronics_store
272,Choice Computers,ChIJ1eXWQux_oDkRj_G10mToM6M,28.9781664,79.3956664,electronics_store
273,Kaushal Electronics,ChIJw2ViPil_oDkRpfjptUBMXsk,28.9783114,79.3947367,electronics_store
274,Shree Ram photography,ChIJSfWGLUF_oDkRSR5sxrail4g,28.9808329,79.41218049999999,electronics_store
275,Acer Mall - Exclusive Store,ChIJMcXxhsN_oDkR_2OJCCzTQaY,28.9761639,79.40138499999999,electronics_store
276,Aastha Enterprises,ChIJu0Nwaux_oDkRkvZFt1BgEEA,28.977279,79.3929872,electronics_store
277,Mahendra kanta company,ChIJo3sjD89_oDkRTJZ3P3HoAkI,28.984359,79.4160911,electronics_store
278,Yash Telecom,ChIJ65Ue0Dd_oDkR46aQZ8bWLL8,28.9789973,79.4116684,electronics_store
279,Sandeep electronics,ChIJB7gzv-x_oDkRtmiGAYViYBg,28.9757909,79.3960164,electronics_store
280,Manav electronics,ChIJ6eHs075_oDkRbAIEEUlo7AQ,28.9782286,79.41756529999999,electronics_store
281,Saurabh Electronic,ChIJ7wzGsvt_oDkRC_CGTTNoYtI,28.981419,79.422398,electronics_store
282,GW Music studio & Film Making,ChIJ54YDC9t_oDkR1Z1u6ityFGY,28.9685524,79.4032685,electronics_store
283,Khuranaa Kitchen Appliances,ChIJXT8fpwV_oDkRy4cf-2vCBsk,28.97679319999999,79.3896291,furniture_store
284,HID MODULAR KITCHEN,ChIJjzXH9vJ_oDkRz8HKHZGCbss,28.9766542,79.3896831,furniture_store
285,Aish Furniture,ChIJ7TrhOxKACjkRKFMRks5X84w,28.9814644,79.3625168,furniture_store
286,Shakti Oil Corporation,ChIJ8QXFo-l_oDkRo73DW9hnq3k,28.982259,79.400488,gas_station
287,Petrol pump,ChIJR9mg8OB_oDkRJ83tpTnRY0c,28.99464690000001,79.40076289999999,gas_station
288,IOC Petrol Pump,ChIJZwbFo-l_oDkRFVFPIJe_svE,28.982344,79.400455,gas_station
289,Petrol Pump,ChIJkQ9G2_R_oDkRzJ_0RuTUt5A,28.9745841,79.3837757,gas_station
290,Indian Oil Petrol Pump,ChIJe6eKNfN_oDkRspe40VmQbRc,28.9741774,79.38724529999999,gas_station
291,Ashok Water Pump Repairing Center,ChIJd0HbJJF_oDkRZ8k9KyU8DpI,28.9683016,79.3967843,gas_station
292,CNG Fueling - PAC Fuels Rudrapur,ChIJKyhCicx_oDkRWGmNwOECiUY,28.9887649,79.3997115,gas_station
293,Rudrapur PAC Fuels,ChIJoyy66NR_oDkRIoLCfofSCQY,28.9887655,79.3995656,gas_station
294,Indian Oil,ChIJqyWiv3t_oDkRnOSggxl9aLU,28.9884124,79.3998939,gas_station
295,SRIKRISHNA INDANE,ChIJ8R7s89h_oDkReCSDdXjgCEg,28.9881139,79.40136799999999,gas_station
296,"Bharat Petroleum, Petrol Pump -Bp-Rudrapur",ChIJe3Lv1sN_oDkRERriMRmnFyU,28.9970351,79.40235609999999,gas_station
297,"Bharat Petroleum, Petrol Pump -Prem Singh & Sons.",ChIJRQ1b7ix_oDkRj_25X-6KX-o,28.9814018,79.3993692,gas_station
298,HP PETROL PUMP - BEHL SERVICE CENTRE,ChIJXXDcM-p_oDkRaX5NytjAdts,28.979669,79.400314,gas_station
299,Gurunanak oil ksk,ChIJR21NbqmBoDkRrKL6P8WnTLY,28.999099,79.392151,gas_station
300,BHARAT PETROLIUM PETROL PUMP,ChIJiaAxXUB_oDkRYP2cS7b7CGY,28.9786011,79.4004471,gas_station
301,HP PETROL PUMP - TARAI MODEL AGENCIES RUDRAPUR,ChIJyS1ep5V_oDkRIrkVgnXPEPw,28.972075,79.40101899999999,gas_station
302,Tarai Model Agencies,ChIJvepPvYl_oDkRNv3gJMDdS8E,28.9708712,79.3976794,gas_station
303,IBP Petrol Pump,ChIJgehvSvN_oDkR56x3B-Vb24w,28.9741444,79.3872946,gas_station
304,Dashmesh Oil Essar Petrol Pump,ChIJqwOaTvN_oDkRDsP2r86MJe8,28.9743332,79.3869764,gas_station
305,Anand Oil Center,ChIJSzpXv_R_oDkRRLKqSZf5iDM,28.9742032,79.3839646,gas_station
306,H P Pump Sirohi Farm Matkota Road,ChIJ2St1JB2AoDkRmDG9qKntgcQ,29.0090927,79.38271870000001,gas_station
307,Srikrishna Indane Gas Godown,ChIJxTs5Edt_oDkR6LH6Nevt6zU,28.98764629999999,79.4306561,gas_station
308,Kesar Singh And Sons,ChIJ0_zuo65_oDkRpHi6-kwNYb4,28.9602929,79.4193422,gas_station
309,Amit Baidya,ChIJRWkxY91_oDkRlgWhvPzt4Gk,28.9887652,79.40309909999999,real_estate_agency
310,Shri Krishna Properties,ChIJsXjGaOp_oDkR7BRDUfslb3w,28.9788261,79.4018304,real_estate_agency
311,GURU NANAK PROPERTIES,ChIJXcKzu-t_oDkRN90Lsua2OHY,28.9787049,79.39916,real_estate_agency
312,MakaanMela.com,ChIJ5el-yox_oDkRl8Q867mwGUU,28.978031,79.3978856,real_estate_agency
313,United Groups,ChIJfVPkscJ_oDkRsag2q4SvksQ,28.986257,79.4036,real_estate_agency
314,DINESH BHATT (DINESH TRADING CO.),ChIJdQmlX8J_oDkROYhrb33_4zU,28.9837349,79.4044134,real_estate_agency
315,Bamal Enterprises & Properties,ChIJ____C_9_oDkRhwcs416NxuU,28.98913079999999,79.3879029,real_estate_agency
316,Platinum View Home Solutions Pvt. Ltd.,ChIJVVWlO5QpCTkRE1XPBQ3K2TU,28.9875082,79.4141214,real_estate_agency
317,Saanvi Girls and Boys PG RENT,ChIJ5QaCqPB_oDkR88hmsuzuJss,28.985127,79.386678,real_estate_agency
318,Palm Green,ChIJFxcdoO1_oDkR71TuokdfDhY,28.9772573,79.3930202,real_estate_agency
319,Baljinder Singh (Property Dealer),ChIJV6640JJ_oDkRoBPX6d5byeg,28.973776,79.394004,real_estate_agency
320,Tiwari Properties - Property Dealers In Rudrapur,ChIJDVFWcDp_oDkRmDHP-jLmGkE,28.9692359,79.4003611,real_estate_agency
321,Alliance Kingston Estate,ChIJicvhgtSBCjkROueLFpPxerI,28.9768328,79.3784764,real_estate_agency
322,Vimal Homes,ChIJabPn6kx-oDkRXD0uJyO1pyg,28.9697231,79.4269235,real_estate_agency
323,Bata Showroom,ChIJof9jW-l_oDkRcnAWK59luIg,28.9810949,79.3981362,shoe_store
324,adidas,ChIJV-wOd-x_oDkR5yzheFlqEU4,28.9784927,79.39700739999999,shoe_store
325,Vishwas General Store,ChIJDbN-elN_oDkRXP06SYQCM5o,28.9894589,79.40117470000001,shopping_mall
326,Modicare Dp,ChIJ21QHXH5_oDkRtt4E1Lrq-Xs,28.9887316,79.40401969999999,shopping_mall
327,Pathak Kirana Store,ChIJl9zo8G1_oDkR8-p2CChjOTI,28.9892649,79.4051282,shopping_mall
328,SARKAR ONLINE,ChIJC23vVjh_oDkR5hEH8PQqJtI,28.9870047,79.3903576,shopping_mall
329,Mandal Kirana Store,ChIJv538kMV_oDkRPs8nSaSE37w,28.9836824,79.4132053,shopping_mall
330,Noori Baba clothes shop,ChIJmZHUw1p_oDkRCitutSee8Nk,28.9771003,79.3991241,shopping_mall
331,Das Market (Anup Chandra Das),ChIJGVVJ4cV_oDkRwX-oX6jZ-9c,28.98198420000001,79.4129998,shopping_mall
332,Nirankar Cycle Store,ChIJ_8fyaut_oDkRqchz8EIE6mM,28.9762767,79.3985045,shopping_mall
333,Dxn office rudrapur,ChIJFQgcjf9_oDkR1HtnFQxHG_k,28.97563310000001,79.39678289999999,shopping_mall
334,Omaxe Metropolis Mall Road,ChIJj9J4lceBoDkRJw80cU41MUk,29.0023964,79.3898312,shopping_mall
335,SINGH DENTAL DEPOT,ChIJ96iXzL9_oDkRaZGRzO3azOA,28.9925995,79.3808725,shopping_mall
336,KISAN ATTA CHAKKI OR KIRANA,ChIJ90U4_yeBCjkRGDTY0d7yE1o,28.9796983,79.377313,shopping_mall
337,Soni Mart,ChIJF71CwIN_oDkR40y8VZVnhRw,28.9641196,79.40738859999999,shopping_mall
338,Mahabal Auto Ancillaries Pvt Ltd,ChIJTRnm53eAoDkRaJ2XpNWkXRI,29.005926,79.42033769999999,storage
339,Jain Properties warehousing solutions,ChIJtxmdXgd_oDkR22adu1IYt4s,28.97581469999999,79.3950976,storage
340,Jain Properties - (Warehouse/Godown Solutions),ChIJrdD55-x_oDkRyijN0Ubah70,28.975779,79.395035,storage
341,"FCI, FSD RUDRAPUR",ChIJAwU_Grl_oDkRmpQFdwAs0Co,28.97220960000001,79.41033089999999,storage
342,Godown warehouse for rent in rudrapur,ChIJja_vPCV_oDkRlbcS0Xgmwfs,28.9735828,79.3879524,storage
343,AARYAN WAREHOUSE SOLUTIONS,ChIJ5_RpqR2AoDkRFipCF9jOZ7g,29.0111667,79.3827429,storage
344,Shan Logistic & Sopply Chain Solution- Shanu Auto - TPI Quality Service,ChIJaUcqkwJ_oDkRA3hagDUIe_o,28.962086,79.40587699999999,storage
345,L&L Products India Pvt. Ltd.,ChIJKax3HsWBoDkRkat9VUVQiXo,29.0184053,79.4146222,storage
346,Samaprk India Logistics Pvt Ltd,ChIJ9xqPkoV_oDkRXtXj0sHS1yA,28.9616141,79.38752889999999,storage
347,Axpress Logistics India Pvt Ltd Rudrapur,ChIJx2S2Bdl_oDkR7YPN_z7vT-Y,28.9766456,79.43587099999999,storage
348,SUPERGAS Godown - Rudrapur,ChIJe0sJe0h-oDkRlxpCqZMmYI4,28.9753395,79.4360834,storage
349,Railway Malgodown,ChIJTYuEoYp_oDkRNJz5NUCBhw4,28.97213369999999,79.38065259999999,storage
350,Bata Showroom,ChIJof9jW-l_oDkRcnAWK59luIg,28.9810949,79.3981362,store
351,Archies Gallery,ChIJJYQnZOl_oDkRgEl36fij_NA,28.9822566,79.4005768,store
352,Gulati Opticals,ChIJU8Edb-l_oDkRODVBeX61f4o,28.9814571,79.399108,store
353,Easy Day Store,ChIJ91vpbel_oDkRd-IwFuKckkw,28.9817229,79.3992756,store
354,Manjeet Electronics Pvt. Ltd.,ChIJU0DE5-t_oDkRZqe5SpGz9Lg,28.9798455,79.3984814,store
355,Devraj Computer,ChIJ06FiAOl_oDkRpqSkdwC3DEs,28.9882412,79.39555399999999,store
356,Bharat Gas,ChIJ0fvY0-d_oDkRtCxLtDKSMVk,28.9869014,79.40039209999999,store
357,HP World,ChIJ06FiAOl_oDkRIqUXEta6iEY,28.986127,79.400374,store
358,Vishal Mega Mart,ChIJWTMUwOt_oDkRS-g7YWKU48o,28.9817921,79.3987952,store
359,Dell Exclusive Store,ChIJUe0Qq9p_oDkRTyoT5aDAqVA,28.9815157,79.39901239999999,store
360,BHUMIKA NATURAL CARE,ChIJMys1WO5_oDkRlHBpo_iI36c,28.9817654,79.39504440000002,store
361,"Essar Hypermart, Rudrapur",ChIJ06FiAOl_oDkRC9q4E1_U67k,28.98,79.39999999999999,store
362,Reliance Digital,ChIJofjGpAuAoDkR9gi3wNUxJCY,29.00135539999999,79.3994979,store
363,Computer Future,ChIJQ76ZtNp_oDkRRtXNdp4yjRU,28.9875279,79.4130287,store
364,BB-RUDRAPUR-METROPOLIS MALL,ChIJxSK2cByACjkRcblCPHIBJdA,29.0015287,79.39951599999999,store
365,Westside,ChIJyWTzowuAoDkRhOiDjfRkMlo,29.0017316,79.3993199,store
366,[Apple Authorized Reseller] iCrest | Rudrapur,ChIJqVwapAuAoDkRHs7TeWOKQs8,29.0017715,79.399671,store
367,Louis Philippe,ChIJQZTYZh6boDkRq0InEcdKX8g,28.9875082,79.4141214,store
368,Gulab Wala,ChIJ-UKAbOx_oDkRu_nrHIO3C1s,28.9787216,79.3961867,store
369,DHEER MART,ChIJ7VErgOt_oDkRwc7sVKVXDBA,28.9787216,79.3961867,store
370,Vishal Mega Mart,ChIJWTMUwOt_oDkRS-g7YWKU48o,28.9817921,79.3987952,supermarket
371,"Essar Hypermart, Rudrapur",ChIJ06FiAOl_oDkRC9q4E1_U67k,28.98,79.39999999999999,supermarket
372,BB-RUDRAPUR-METROPOLIS MALL,ChIJxSK2cByACjkRcblCPHIBJdA,29.0015287,79.39951599999999,supermarket
373,Shubham General Store.,ChIJG9qykud_oDkRNPAi6L-RPKM,28.987997,79.4021068,supermarket
374,"Ananda Milk Store, Babli Kirana Store",ChIJI10aQN1_oDkRURJQJAuoSE4,28.98812229999999,79.4042138,supermarket
375,eBasq Online Marketplace,ChIJU5hiLjF_oDkRPj2nEJHhUb0,28.9860582,79.4007694,supermarket
376,Army Kirana Store,ChIJt-2xA8N_oDkR2dtkcvEn3RQ,28.98456729999999,79.4058307,supermarket
377,Sabji Market,ChIJtddT1fp_oDkRi-x_3ihsWg8,28.987513,79.390562,supermarket
378,SARKAR ONLINE,ChIJC23vVjh_oDkR5hEH8PQqJtI,28.9870047,79.3903576,supermarket
379,Kalu Kirana Store,ChIJxz0nvvp_oDkRHypMlBDJ0RQ,28.9868073,79.3902047,supermarket
380,Khunger complex,ChIJGyfsJ39_oDkRGTxKJ_srLus,28.980304,79.40155899999999,supermarket
381,R k Sharma telecom,ChIJ-1aIUg5_oDkRhtVjTdNWEi4,28.9822503,79.408424,supermarket
382,Hare krishna market,ChIJDUNZek9_oDkRcprpjHA0WpM,28.9890282,79.4129636,supermarket
383,Guru Kripa Daily Needs Store,ChIJh759oY9_oDkRxzBjvxOS93M,28.9842632,79.3898634,supermarket
384,R.K.JEWELLERS,ChIJ9XF8lDt_oDkRNxabuBQosq8,28.9863507,79.41317219999999,supermarket
385,Arora Enterprises,ChIJofb_Dex_oDkRG-YtsBdlQyY,28.979278,79.396532,supermarket
386,Superhit Market,ChIJ72hIKt5_oDkRD_MS9t7FGAw,28.978265,79.4020494,supermarket
387,Royal Super Market,ChIJKQi-XgmAoDkREdFXObDkGBY,29.0021812,79.39690619999999,supermarket
388,Gangwar Telecom,ChIJAw9sD8B_oDkRd00EgZK52MU,28.9780137,79.4005093,supermarket
389,Visal Megawat,ChIJk-zhQKh_oDkRWAy6IFdOiKs,28.9946035,79.3872354,supermarket
390,Travelderness,ChIJMVVVVcV_oDkRcwVdCZGcjsw,28.9988183,79.3932209,travel_agency
391,anshul travels,ChIJARcdoO1_oDkRaGhjo-R8szY,28.977257,79.39301999999999,travel_agency
392,Zenit Excelencia ( Ielts Coaching & Visa Filing ),ChIJf_QVOe1_oDkR8G5a5hUjPKg,28.987883,79.4025613,travel_agency
393,Raj Computer Solution,ChIJNchLnOx_oDkRW-mzbvuTm4I,28.9765495,79.39704189999999,travel_agency
394,ELITE IMMIGRATION - IELTS & VISA FILING,ChIJJbsVV_N_oDkRG2dWfjR_SHQ,28.97432019999999,79.3870963,travel_agency
395,"S.N.Associates, Air Ticket, Vehicle Insurance, Digital Signature Cert. etc",ChIJVRxfZb5_oDkRh6IcVjkVgzM,28.9703194,79.404985,travel_agency
396,Sahani travels rudrapur,ChIJAXsmD0l_oDkRv22V6XC7h1g,28.9687719,79.3977653,travel_agency
397,Param's Dream Holidays Pvt. Ltd.,ChIJ9Wh_0B2ACjkReY1NzXfHjHk,28.979437,79.37812699999999,travel_agency
398,Jeet Tour And Travels,ChIJyQyM7cKBCjkRs3CD-Au-4Os,28.98054549999999,79.3747155,travel_agency
399,JAN SEVA KENDRA PAYTM STORE & PAYTM KYC POINT,ChIJMb0k8rJ_oDkRblInk2Rktpk,28.9623274,79.3927497,travel_agency
